{
  "norad_id": 60100,
  "name": "STARLINK-31996",
  "history": [
    {
      "epoch": "2026-03-28T22:01:44.550336",
      "apogee_km": 475.98438683112363,
      "perigee_km": 474.49994490379686,
      "latitude_deg": 12.089807436825039,
      "longitude_deg": -81.88383296015672,
      "semi_major_axis_km": 6853.37916586746,
      "eccentricity": 0.0001083,
      "inclination_deg": 53.1607,
      "raan_deg": 307.5784,
      "arg_perigee_deg": 93.2508,
      "mean_anomaly_deg": 266.8617,
      "mean_motion_rev_day": 15.30190925
    },
    {
      "epoch": "2026-03-28T23:35:48.014304",
      "apogee_km": 475.94656782715356,
      "perigee_km": 474.53751309643394,
      "latitude_deg": -38.7107663367246,
      "longitude_deg": -75.6133174400311,
      "semi_major_axis_km": 6853.379040461793,
      "eccentricity": 0.0001028,
      "inclination_deg": 53.1612,
      "raan_deg": 307.2748,
      "arg_perigee_deg": 97.086,
      "mean_anomaly_deg": 263.0258,
      "mean_motion_rev_day": 15.30190967
    }
  ]
}